{
  "type": "FeatureCollection",
  "crs": {
    "type": "name",
    "properties": {
      "name": "EPSG:4326"
    }
  },
  "features": [
    {
      "type": "Feature",
      "properties": {
        "plot_id": "CSIDC_PLOT_3",
        "source": "CSIDC GeoServer WMS",
        "area_px": 3833
      },
      "geometry": {
        "type": "Polygon",
        "coordinates": [
          [
            [
              82.91189867,
              22.9800232
            ],
            [
              82.91191171,
              22.97988509
            ],
            [
              82.91205843,
              22.9798333
            ],
            [
              82.91206495,
              22.97871116
            ],
            [
              82.91190519,
              22.97870541
            ],
            [
              82.91190193,
              22.97862484
            ],
            [
              82.91206169,
              22.97861333
            ],
            [
              82.91206821,
              22.97843494
            ],
            [
              82.9121758,
              22.97846947
            ],
            [
              82.91229318,
              22.97814722
            ],
            [
              82.91265508,
              22.97821052
            ],
            [
              82.91273333,
              22.97798609
            ],
            [
              82.9126616,
              22.97824504
            ],
            [
              82.91230296,
              22.97817599
            ],
            [
              82.91218558,
              22.978504
            ],
            [
              82.91208451,
              22.97847523
            ],
            [
              82.91207473,
              22.97985056
            ],
            [
              82.91193127,
              22.97990236
            ],
            [
              82.91189867,
              22.9800232
            ]
          ]
        ]
      }
    },
    {
      "type": "Feature",
      "properties": {
        "plot_id": "CSIDC_PLOT_5",
        "source": "CSIDC GeoServer WMS",
        "area_px": 5642
      },
      "geometry": {
        "type": "Polygon",
        "coordinates": [
          [
            [
              82.90949248,
              22.9812259
            ],
            [
              82.90938815,
              22.97773864
            ],
            [
              82.91022607,
              22.97770987
            ],
            [
              82.90940771,
              22.97776166
            ],
            [
              82.90950226,
              22.98119138
            ],
            [
              82.91022607,
              22.98119713
            ],
            [
              82.90949248,
              22.9812259
            ]
          ]
        ]
      }
    },
    {
      "type": "Feature",
      "properties": {
        "plot_id": "CSIDC_PLOT_1",
        "source": "CSIDC GeoServer WMS",
        "area_px": 16876
      },
      "geometry": {
        "type": "Polygon",
        "coordinates": [
          [
            [
              82.91131505,
              22.978504
            ],
            [
              82.91130527,
              22.9779976
            ],
            [
              82.91229644,
              22.97815297
            ],
            [
              82.91226057,
              22.97827382
            ],
            [
              82.91181064,
              22.97827382
            ],
            [
              82.9118139,
              22.97854428
            ],
            [
              82.91131505,
              22.978504
            ]
          ]
        ]
      }
    },
    {
      "type": "Feature",
      "properties": {
        "plot_id": "CSIDC_PLOT_2",
        "source": "CSIDC GeoServer WMS",
        "area_px": 28897
      },
      "geometry": {
        "type": "Polygon",
        "coordinates": [
          [
            [
              82.91134114,
              22.97940171
            ],
            [
              82.91133135,
              22.97871116
            ],
            [
              82.91207473,
              22.97869965
            ],
            [
              82.91207147,
              22.97943048
            ],
            [
              82.91134114,
              22.97940171
            ]
          ]
        ]
      }
    },
    {
      "type": "Feature",
      "properties": {
        "plot_id": "CSIDC_PLOT_3",
        "source": "CSIDC GeoServer WMS",
        "area_px": 26604
      },
      "geometry": {
        "type": "Polygon",
        "coordinates": [
          [
            [
              82.91092054,
              22.97942473
            ],
            [
              82.91022933,
              22.97942473
            ],
            [
              82.91022933,
              22.9786939
            ],
            [
              82.91090098,
              22.97869965
            ],
            [
              82.91092054,
              22.97942473
            ]
          ]
        ]
      }
    },
    {
      "type": "Feature",
      "properties": {
        "plot_id": "CSIDC_PLOT_4",
        "source": "CSIDC GeoServer WMS",
        "area_px": 3994
      },
      "geometry": {
        "type": "Polygon",
        "coordinates": [
          [
            [
              82.91022933,
              22.97994839
            ],
            [
              82.91022933,
              22.9795801
            ],
            [
              82.91039561,
              22.9795801
            ],
            [
              82.91043148,
              22.97961463
            ],
            [
              82.91043148,
              22.97993688
            ],
            [
              82.91022933,
              22.97994839
            ]
          ]
        ]
      }
    },
    {
      "type": "Feature",
      "properties": {
        "plot_id": "CSIDC_PLOT_5",
        "source": "CSIDC GeoServer WMS",
        "area_px": 16919
      },
      "geometry": {
        "type": "Polygon",
        "coordinates": [
          [
            [
              82.91086511,
              22.98005773
            ],
            [
              82.91085533,
              22.9795801
            ],
            [
              82.91159871,
              22.97959161
            ],
            [
              82.91160849,
              22.98000018
            ],
            [
              82.91086511,
              22.98005773
            ]
          ]
        ]
      }
    },
    {
      "type": "Feature",
      "properties": {
        "plot_id": "CSIDC_PLOT_6",
        "source": "CSIDC GeoServer WMS",
        "area_px": 4920
      },
      "geometry": {
        "type": "Polygon",
        "coordinates": [
          [
            [
              82.91022933,
              22.98010376
            ],
            [
              82.91040214,
              22.98012103
            ],
            [
              82.91053907,
              22.98042027
            ],
            [
              82.91053907,
              22.98044904
            ],
            [
              82.91050647,
              22.98047781
            ],
            [
              82.91022933,
              22.98047781
            ],
            [
              82.91022933,
              22.98010376
            ]
          ]
        ]
      }
    },
    {
      "type": "Feature",
      "properties": {
        "plot_id": "CSIDC_PLOT_7",
        "source": "CSIDC GeoServer WMS",
        "area_px": 11095
      },
      "geometry": {
        "type": "Polygon",
        "coordinates": [
          [
            [
              82.91022933,
              22.98062743
            ],
            [
              82.91063036,
              22.98063894
            ],
            [
              82.91079665,
              22.98102449
            ],
            [
              82.91077382,
              22.98105327
            ],
            [
              82.91022933,
              22.98105327
            ],
            [
              82.91022933,
              22.98062743
            ]
          ]
        ]
      }
    },
    {
      "type": "Feature",
      "properties": {
        "plot_id": "CSIDC_PLOT_1",
        "source": "CSIDC GeoServer WMS",
        "area_px": 157128
      },
      "geometry": {
        "type": "Polygon",
        "coordinates": [
          [
            [
              82.90949248,
              22.98121439
            ],
            [
              82.91078034,
              22.98104176
            ],
            [
              82.91022933,
              22.98063894
            ],
            [
              82.91053255,
              22.98044904
            ],
            [
              82.91022933,
              22.97941897
            ],
            [
              82.91091076,
              22.97941897
            ],
            [
              82.91090098,
              22.97876295
            ],
            [
              82.91022933,
              22.97869965
            ],
            [
              82.91022607,
              22.97798033
            ],
            [
              82.90939467,
              22.97773864
            ],
            [
              82.91273007,
              22.97796307
            ],
            [
              82.91130853,
              22.97800911
            ],
            [
              82.91135418,
              22.97853853
            ],
            [
              82.91225731,
              22.97827957
            ],
            [
              82.91132809,
              22.97872843
            ],
            [
              82.91135092,
              22.97940746
            ],
            [
              82.91206821,
              22.97942473
            ],
            [
              82.91206821,
              22.97985056
            ],
            [
              82.91086185,
              22.97959161
            ],
            [
              82.91062058,
              22.98012678
            ],
            [
              82.91107378,
              22.98122015
            ],
            [
              82.90949248,
              22.98121439
            ]
          ]
        ]
      }
    }
  ]
}