{
  "type": "FeatureCollection",
  "features": [
    {
      "type": "Feature",
      "properties": {
        "plot_id": "P001",
        "type": "current",
        "violation_type": "COMPLIANT"
      },
      "geometry": {
        "type": "Polygon",
        "coordinates": [
          [
            [
              81.62249802610414,
              21.25373451009469
            ],
            [
              81.62470462448569,
              21.253825227273047
            ],
            [
              81.62473541567306,
              21.254927519819468
            ],
            [
              81.62252707396465,
              21.25491608904875
            ],
            [
              81.62249802610414,
              21.25373451009469
            ]
          ]
        ]
      }
    },
    {
      "type": "Feature",
      "properties": {
        "plot_id": "P002",
        "type": "current",
        "violation_type": "ENCROACHMENT"
      },
      "geometry": {
        "type": "Polygon",
        "coordinates": [
          [
            [
              81.62521736865455,
              21.253440046739918
            ],
            [
              81.6279475691174,
              21.25333900747015
            ],
            [
              81.62805575789659,
              21.255495104606577
            ],
            [
              81.62529546906612,
              21.255485226215203
            ],
            [
              81.62521736865455,
              21.253440046739918
            ]
          ]
        ]
      }
    },
    {
      "type": "Feature",
      "properties": {
        "plot_id": "P003",
        "type": "current",
        "violation_type": "VACANT_PLOT"
      },
      "geometry": {
        "type": "Polygon",
        "coordinates": [
          [
            [
              81.62868827223109,
              21.253415580608504
            ],
            [
              81.63057665057107,
              21.253472761043785
            ],
            [
              81.63059492770319,
              21.255341618954645
            ],
            [
              81.6285666923279,
              21.255358899949865
            ],
            [
              81.62868827223109,
              21.253415580608504
            ]
          ]
        ]
      }
    },
    {
      "type": "Feature",
      "properties": {
        "plot_id": "P004",
        "type": "current",
        "violation_type": "ENCROACHMENT"
      },
      "geometry": {
        "type": "Polygon",
        "coordinates": [
          [
            [
              81.63125875594814,
              21.25317002991198
            ],
            [
              81.63396114931209,
              21.2532102860551
            ],
            [
              81.63386824049158,
              21.255610366086405
            ],
            [
              81.63120430478982,
              21.25554954354322
            ],
            [
              81.63125875594814,
              21.25317002991198
            ]
          ]
        ]
      }
    },
    {
      "type": "Feature",
      "properties": {
        "plot_id": "P005",
        "type": "current",
        "violation_type": "UNAUTHORIZED_CONSTRUCTION"
      },
      "geometry": {
        "type": "Polygon",
        "coordinates": [
          [
            [
              81.63442687912429,
              21.25350241738
            ],
            [
              81.63672678554781,
              21.25353104072287
            ],
            [
              81.63665735525859,
              21.255212506858836
            ],
            [
              81.63459685763179,
              21.25529672374834
            ],
            [
              81.63442687912429,
              21.25350241738
            ]
          ]
        ]
      }
    },
    {
      "type": "Feature",
      "properties": {
        "plot_id": "P006",
        "type": "current",
        "violation_type": "ENCROACHMENT"
      },
      "geometry": {
        "type": "Polygon",
        "coordinates": [
          [
            [
              81.62239849391892,
              21.250755409837534
            ],
            [
              81.62468846860246,
              21.25057077989834
            ],
            [
              81.62487543562087,
              21.252117647538807
            ],
            [
              81.62250072568287,
              21.252156747356366
            ],
            [
              81.62239849391892,
              21.250755409837534
            ]
          ]
        ]
      }
    },
    {
      "type": "Feature",
      "properties": {
        "plot_id": "P007",
        "type": "current",
        "violation_type": "COMPLIANT"
      },
      "geometry": {
        "type": "Polygon",
        "coordinates": [
          [
            [
              81.62528388036284,
              21.250720670647496
            ],
            [
              81.62794549259627,
              21.250844353446908
            ],
            [
              81.62793460685761,
              21.252005860110685
            ],
            [
              81.62527270864578,
              21.252099118426383
            ],
            [
              81.62528388036284,
              21.250720670647496
            ]
          ]
        ]
      }
    },
    {
      "type": "Feature",
      "properties": {
        "plot_id": "P008",
        "type": "current",
        "violation_type": "ENCROACHMENT"
      },
      "geometry": {
        "type": "Polygon",
        "coordinates": [
          [
            [
              81.62833203832002,
              21.250660441621953
            ],
            [
              81.63095315427155,
              21.250467213497274
            ],
            [
              81.63085273549744,
              21.25218796075126
            ],
            [
              81.62821677560893,
              21.252305470040874
            ],
            [
              81.62833203832002,
              21.250660441621953
            ]
          ]
        ]
      }
    },
    {
      "type": "Feature",
      "properties": {
        "plot_id": "P009",
        "type": "current",
        "violation_type": "VACANT_PLOT"
      },
      "geometry": {
        "type": "Polygon",
        "coordinates": [
          [
            [
              81.63157772197275,
              21.25063771159908
            ],
            [
              81.63362610983417,
              21.25064697660253
            ],
            [
              81.63361534303891,
              21.252324547844992
            ],
            [
              81.63155176857745,
              21.252295577498412
            ],
            [
              81.63157772197275,
              21.25063771159908
            ]
          ]
        ]
      }
    },
    {
      "type": "Feature",
      "properties": {
        "plot_id": "P010",
        "type": "current",
        "violation_type": "BOUNDARY_DEVIATION"
      },
      "geometry": {
        "type": "Polygon",
        "coordinates": [
          [
            [
              81.63505098714528,
              21.25105412971312
            ],
            [
              81.63686662547998,
              21.250976172542615
            ],
            [
              81.63687903902593,
              21.252457788060397
            ],
            [
              81.6350092488283,
              21.252252611371546
            ],
            [
              81.63505098714528,
              21.25105412971312
            ]
          ]
        ]
      }
    }
  ]
}