{
  "type": "FeatureCollection",
  "features": [
    {
      "type": "Feature",
      "properties": {
        "plot_id": "P001",
        "type": "reference"
      },
      "geometry": {
        "type": "Polygon",
        "coordinates": [
          [
            [
              81.62248529246443,
              21.25373463784554
            ],
            [
              81.62471700764206,
              21.253825335595394
            ],
            [
              81.62474814931277,
              21.254927392068616
            ],
            [
              81.6225146709647,
              21.254915963745976
            ],
            [
              81.62248529246443,
              21.25373463784554
            ]
          ]
        ]
      }
    },
    {
      "type": "Feature",
      "properties": {
        "plot_id": "P002",
        "type": "reference"
      },
      "geometry": {
        "type": "Polygon",
        "coordinates": [
          [
            [
              81.62545368148164,
              21.25360273043812
            ],
            [
              81.62772927101209,
              21.253518515411578
            ],
            [
              81.62781944506949,
              21.25531559666515
            ],
            [
              81.62551877724341,
              21.25530736314373
            ],
            [
              81.62545368148164,
              21.25360273043812
            ]
          ]
        ]
      }
    },
    {
      "type": "Feature",
      "properties": {
        "plot_id": "P003",
        "type": "reference"
      },
      "geometry": {
        "type": "Polygon",
        "coordinates": [
          [
            [
              81.62868827223109,
              21.253415580608504
            ],
            [
              81.63057665057107,
              21.253472761043785
            ],
            [
              81.63059492770319,
              21.255341618954645
            ],
            [
              81.6285666923279,
              21.255358899949865
            ],
            [
              81.62868827223109,
              21.253415580608504
            ]
          ]
        ]
      }
    },
    {
      "type": "Feature",
      "properties": {
        "plot_id": "P004",
        "type": "reference"
      },
      "geometry": {
        "type": "Polygon",
        "coordinates": [
          [
            [
              81.631503566047,
              21.253395646218426
            ],
            [
              81.63370627087153,
              21.253428458762244
            ],
            [
              81.63363054144224,
              21.255384749779957
            ],
            [
              81.63145918323036,
              21.255335173685264
            ],
            [
              81.631503566047,
              21.253395646218426
            ]
          ]
        ]
      }
    },
    {
      "type": "Feature",
      "properties": {
        "plot_id": "P005",
        "type": "reference"
      },
      "geometry": {
        "type": "Polygon",
        "coordinates": [
          [
            [
              81.63442687912429,
              21.25350241738
            ],
            [
              81.63672678554781,
              21.25353104072287
            ],
            [
              81.63665735525859,
              21.255212506858836
            ],
            [
              81.63459685763179,
              21.25529672374834
            ],
            [
              81.63442687912429,
              21.25350241738
            ]
          ]
        ]
      }
    },
    {
      "type": "Feature",
      "properties": {
        "plot_id": "P006",
        "type": "reference"
      },
      "geometry": {
        "type": "Polygon",
        "coordinates": [
          [
            [
              81.62258600263175,
              21.25084751667718
            ],
            [
              81.62452926733418,
              21.250690840340784
            ],
            [
              81.62468792690802,
              21.252003506942156
            ],
            [
              81.6226727561578,
              21.252036686913918
            ],
            [
              81.62258600263175,
              21.25084751667718
            ]
          ]
        ]
      }
    },
    {
      "type": "Feature",
      "properties": {
        "plot_id": "P007",
        "type": "reference"
      },
      "geometry": {
        "type": "Polygon",
        "coordinates": [
          [
            [
              81.62529458263852,
              21.25072373579451
            ],
            [
              81.62793470009953,
              21.250846868546297
            ],
            [
              81.62792390227243,
              21.25200320970619
            ],
            [
              81.62528350114253,
              21.25209605327937
            ],
            [
              81.62529458263852,
              21.25072373579451
            ]
          ]
        ]
      }
    },
    {
      "type": "Feature",
      "properties": {
        "plot_id": "P008",
        "type": "reference"
      },
      "geometry": {
        "type": "Polygon",
        "coordinates": [
          [
            [
              81.62853058739098,
              21.250775473737562
            ],
            [
              81.6307363397221,
              21.25061286613289
            ],
            [
              81.63065183413396,
              21.25206092960545
            ],
            [
              81.62843359015837,
              21.252159817405257
            ],
            [
              81.62853058739098,
              21.250775473737562
            ]
          ]
        ]
      }
    },
    {
      "type": "Feature",
      "properties": {
        "plot_id": "P009",
        "type": "reference"
      },
      "geometry": {
        "type": "Polygon",
        "coordinates": [
          [
            [
              81.63157772197275,
              21.25063771159908
            ],
            [
              81.63362610983417,
              21.25064697660253
            ],
            [
              81.63361534303891,
              21.252324547844992
            ],
            [
              81.63155176857745,
              21.252295577498412
            ],
            [
              81.63157772197275,
              21.25063771159908
            ]
          ]
        ]
      }
    },
    {
      "type": "Feature",
      "properties": {
        "plot_id": "P010",
        "type": "reference"
      },
      "geometry": {
        "type": "Polygon",
        "coordinates": [
          [
            [
              81.63457216388977,
              21.25085179131046
            ],
            [
              81.63659934646486,
              21.250782811311534
            ],
            [
              81.63661320634189,
              21.252093811135712
            ],
            [
              81.63452556254452,
              21.251912261604286
            ],
            [
              81.63457216388977,
              21.25085179131046
            ]
          ]
        ]
      }
    }
  ]
}