{
  "type": "FeatureCollection",
  "features": [
    {
      "type": "Feature",
      "geometry": {
        "type": "Polygon",
        "coordinates": [
          [
            [
              81.62521736865455,
              21.253440046739918
            ],
            [
              81.6279475691174,
              21.25333900747015
            ],
            [
              81.62805575789659,
              21.255495104606577
            ],
            [
              81.62529546906612,
              21.255485226215203
            ],
            [
              81.62521736865455,
              21.253440046739918
            ]
          ]
        ]
      },
      "properties": {
        "plot_id": "P002",
        "violation_types": [
          "ENCROACHMENT"
        ],
        "primary_violation": "ENCROACHMENT",
        "severity": "CRITICAL",
        "area_ref_sqm": 40091.4,
        "area_cur_sqm": 57710.1,
        "area_diff_pct": 43.95,
        "overlap_pct": 100.0,
        "iou": 0.6947,
        "encroachment_area_sqm": 17618.8,
        "detection_date": "2026-02-01",
        "action_required": "Issue notice to plot holder; schedule field inspection",
        "estimated_cost_inr": 500000,
        "encroachment_geojson": "{\"type\": \"Polygon\", \"coordinates\": [[[81.62529546906612, 21.255485226215203], [81.62805575789659, 21.255495104606577], [81.6279475691174, 21.25333900747015], [81.62521736865455, 21.253440046739918], [81.62529546906612, 21.255485226215203]], [[81.62772927101209, 21.253518515411578], [81.62781944506949, 21.25531559666515], [81.62551877724341, 21.25530736314373], [81.62545368148164, 21.25360273043812], [81.62772927101209, 21.253518515411578]]]}",
        "satellite_verdict": "COMPLIANT",
        "satellite_confidence": 0,
        "satellite_evidence": {
          "sar": {
            "method": "SAR",
            "available": false
          },
          "ndvi": {
            "method": "NDVI",
            "available": false
          },
          "ndbi": {
            "method": "NDBI",
            "available": false
          },
          "tile_diff": {
            "method": "TILE_DIFF",
            "available": true,
            "change_pct": 6.07,
            "ssim": 0.6193,
            "significant_change": false
          }
        }
      }
    },
    {
      "type": "Feature",
      "geometry": {
        "type": "Polygon",
        "coordinates": [
          [
            [
              81.62868827223109,
              21.253415580608504
            ],
            [
              81.63057665057107,
              21.253472761043785
            ],
            [
              81.63059492770319,
              21.255341618954645
            ],
            [
              81.6285666923279,
              21.255358899949865
            ],
            [
              81.62868827223109,
              21.253415580608504
            ]
          ]
        ]
      },
      "properties": {
        "plot_id": "P003",
        "violation_types": [
          "VACANT_PLOT"
        ],
        "primary_violation": "VACANT_PLOT",
        "severity": "LOW",
        "area_ref_sqm": 37337.4,
        "area_cur_sqm": 37337.4,
        "area_diff_pct": 0.0,
        "overlap_pct": 100.0,
        "iou": 1.0,
        "encroachment_area_sqm": 0.0,
        "detection_date": "2026-02-02",
        "action_required": "Verify land-use status; consider reallocation",
        "estimated_cost_inr": 50000,
        "satellite_verdict": "COMPLIANT",
        "satellite_confidence": 0,
        "satellite_evidence": {
          "sar": {
            "method": "SAR",
            "available": false
          },
          "ndvi": {
            "method": "NDVI",
            "available": false
          },
          "ndbi": {
            "method": "NDBI",
            "available": false
          },
          "tile_diff": {
            "method": "TILE_DIFF",
            "available": true,
            "change_pct": 8.8,
            "ssim": 0.5409,
            "significant_change": false
          }
        }
      }
    },
    {
      "type": "Feature",
      "geometry": {
        "type": "Polygon",
        "coordinates": [
          [
            [
              81.63125875594814,
              21.25317002991198
            ],
            [
              81.63396114931209,
              21.2532102860551
            ],
            [
              81.63386824049158,
              21.255610366086405
            ],
            [
              81.63120430478982,
              21.25554954354322
            ],
            [
              81.63125875594814,
              21.25317002991198
            ]
          ]
        ]
      },
      "properties": {
        "plot_id": "P004",
        "violation_types": [
          "ENCROACHMENT"
        ],
        "primary_violation": "ENCROACHMENT",
        "severity": "CRITICAL",
        "area_ref_sqm": 42626.1,
        "area_cur_sqm": 64159.4,
        "area_diff_pct": 50.52,
        "overlap_pct": 100.0,
        "iou": 0.6644,
        "encroachment_area_sqm": 21533.3,
        "detection_date": "2026-01-31",
        "action_required": "Issue notice to plot holder; schedule field inspection",
        "estimated_cost_inr": 500000,
        "encroachment_geojson": "{\"type\": \"Polygon\", \"coordinates\": [[[81.63120430478982, 21.25554954354322], [81.63386824049158, 21.255610366086405], [81.63396114931209, 21.2532102860551], [81.63125875594814, 21.25317002991198], [81.63120430478982, 21.25554954354322]], [[81.63370627087153, 21.253428458762244], [81.63363054144224, 21.255384749779957], [81.63145918323036, 21.255335173685264], [81.631503566047, 21.253395646218426], [81.63370627087153, 21.253428458762244]]]}",
        "satellite_verdict": "COMPLIANT",
        "satellite_confidence": 0,
        "satellite_evidence": {
          "sar": {
            "method": "SAR",
            "available": false
          },
          "ndvi": {
            "method": "NDVI",
            "available": false
          },
          "ndbi": {
            "method": "NDBI",
            "available": false
          },
          "tile_diff": {
            "method": "TILE_DIFF",
            "available": true,
            "change_pct": 4.3,
            "ssim": 0.7005,
            "significant_change": false
          }
        }
      }
    },
    {
      "type": "Feature",
      "geometry": {
        "type": "Polygon",
        "coordinates": [
          [
            [
              81.63442687912429,
              21.25350241738
            ],
            [
              81.63672678554781,
              21.25353104072287
            ],
            [
              81.63665735525859,
              21.255212506858836
            ],
            [
              81.63459685763179,
              21.25529672374834
            ],
            [
              81.63442687912429,
              21.25350241738
            ]
          ]
        ]
      },
      "properties": {
        "plot_id": "P005",
        "violation_types": [
          "UNAUTHORIZED_CONSTRUCTION"
        ],
        "primary_violation": "UNAUTHORIZED_CONSTRUCTION",
        "severity": "LOW",
        "area_ref_sqm": 37903.4,
        "area_cur_sqm": 37903.4,
        "area_diff_pct": 0.0,
        "overlap_pct": 100.0,
        "iou": 1.0,
        "encroachment_area_sqm": 0.0,
        "detection_date": "2026-02-02",
        "action_required": "Halt construction; issue demolition notice",
        "estimated_cost_inr": 50000,
        "satellite_verdict": "COMPLIANT",
        "satellite_confidence": 0,
        "satellite_evidence": {
          "sar": {
            "method": "SAR",
            "available": false
          },
          "ndvi": {
            "method": "NDVI",
            "available": false
          },
          "ndbi": {
            "method": "NDBI",
            "available": false
          },
          "tile_diff": {
            "method": "TILE_DIFF",
            "available": true,
            "change_pct": 8.94,
            "ssim": 0.4325,
            "significant_change": false
          }
        }
      }
    },
    {
      "type": "Feature",
      "geometry": {
        "type": "Polygon",
        "coordinates": [
          [
            [
              81.62239849391892,
              21.250755409837534
            ],
            [
              81.62468846860246,
              21.25057077989834
            ],
            [
              81.62487543562087,
              21.252117647538807
            ],
            [
              81.62250072568287,
              21.252156747356366
            ],
            [
              81.62239849391892,
              21.250755409837534
            ]
          ]
        ]
      },
      "properties": {
        "plot_id": "P006",
        "violation_types": [
          "ENCROACHMENT"
        ],
        "primary_violation": "ENCROACHMENT",
        "severity": "CRITICAL",
        "area_ref_sqm": 24874.9,
        "area_cur_sqm": 34542.9,
        "area_diff_pct": 38.87,
        "overlap_pct": 100.0,
        "iou": 0.7201,
        "encroachment_area_sqm": 9668.0,
        "detection_date": "2026-01-21",
        "action_required": "Issue notice to plot holder; schedule field inspection",
        "estimated_cost_inr": 500000,
        "encroachment_geojson": "{\"type\": \"Polygon\", \"coordinates\": [[[81.62250072568287, 21.252156747356366], [81.62487543562087, 21.252117647538807], [81.62468846860246, 21.25057077989834], [81.62239849391892, 21.250755409837534], [81.62250072568287, 21.252156747356366]], [[81.62452926733418, 21.250690840340784], [81.62468792690802, 21.252003506942156], [81.6226727561578, 21.252036686913918], [81.62258600263175, 21.25084751667718], [81.62452926733418, 21.250690840340784]]]}",
        "satellite_verdict": "COMPLIANT",
        "satellite_confidence": 0,
        "satellite_evidence": {
          "sar": {
            "method": "SAR",
            "available": false
          },
          "ndvi": {
            "method": "NDVI",
            "available": false
          },
          "ndbi": {
            "method": "NDBI",
            "available": false
          },
          "tile_diff": {
            "method": "TILE_DIFF",
            "available": true,
            "change_pct": 4.7,
            "ssim": 0.6619,
            "significant_change": false
          }
        }
      }
    },
    {
      "type": "Feature",
      "geometry": {
        "type": "Polygon",
        "coordinates": [
          [
            [
              81.62833203832002,
              21.250660441621953
            ],
            [
              81.63095315427155,
              21.250467213497274
            ],
            [
              81.63085273549744,
              21.25218796075126
            ],
            [
              81.62821677560893,
              21.252305470040874
            ],
            [
              81.62833203832002,
              21.250660441621953
            ]
          ]
        ]
      },
      "properties": {
        "plot_id": "P008",
        "violation_types": [
          "ENCROACHMENT"
        ],
        "primary_violation": "ENCROACHMENT",
        "severity": "CRITICAL",
        "area_ref_sqm": 31207.7,
        "area_cur_sqm": 44067.8,
        "area_diff_pct": 41.21,
        "overlap_pct": 100.0,
        "iou": 0.7082,
        "encroachment_area_sqm": 12860.1,
        "detection_date": "2026-01-14",
        "action_required": "Issue notice to plot holder; schedule field inspection",
        "estimated_cost_inr": 500000,
        "encroachment_geojson": "{\"type\": \"Polygon\", \"coordinates\": [[[81.62821677560893, 21.252305470040874], [81.63085273549744, 21.25218796075126], [81.63095315427155, 21.250467213497274], [81.62833203832002, 21.250660441621953], [81.62821677560893, 21.252305470040874]], [[81.6307363397221, 21.25061286613289], [81.63065183413396, 21.25206092960545], [81.62843359015837, 21.252159817405257], [81.62853058739098, 21.250775473737562], [81.6307363397221, 21.25061286613289]]]}",
        "satellite_verdict": "COMPLIANT",
        "satellite_confidence": 0,
        "satellite_evidence": {
          "sar": {
            "method": "SAR",
            "available": false
          },
          "ndvi": {
            "method": "NDVI",
            "available": false
          },
          "ndbi": {
            "method": "NDBI",
            "available": false
          },
          "tile_diff": {
            "method": "TILE_DIFF",
            "available": true,
            "change_pct": 6.23,
            "ssim": 0.606,
            "significant_change": false
          }
        }
      }
    },
    {
      "type": "Feature",
      "geometry": {
        "type": "Polygon",
        "coordinates": [
          [
            [
              81.63157772197275,
              21.25063771159908
            ],
            [
              81.63362610983417,
              21.25064697660253
            ],
            [
              81.63361534303891,
              21.252324547844992
            ],
            [
              81.63155176857745,
              21.252295577498412
            ],
            [
              81.63157772197275,
              21.25063771159908
            ]
          ]
        ]
      },
      "properties": {
        "plot_id": "P009",
        "violation_types": [
          "VACANT_PLOT"
        ],
        "primary_violation": "VACANT_PLOT",
        "severity": "LOW",
        "area_ref_sqm": 34291.5,
        "area_cur_sqm": 34291.5,
        "area_diff_pct": 0.0,
        "overlap_pct": 100.0,
        "iou": 1.0,
        "encroachment_area_sqm": 0.0,
        "detection_date": "2026-02-01",
        "action_required": "Verify land-use status; consider reallocation",
        "estimated_cost_inr": 50000,
        "satellite_verdict": "COMPLIANT",
        "satellite_confidence": 0,
        "satellite_evidence": {
          "sar": {
            "method": "SAR",
            "available": false
          },
          "ndvi": {
            "method": "NDVI",
            "available": false
          },
          "ndbi": {
            "method": "NDBI",
            "available": false
          },
          "tile_diff": {
            "method": "TILE_DIFF",
            "available": true,
            "change_pct": 9.64,
            "ssim": 0.5493,
            "significant_change": false
          }
        }
      }
    },
    {
      "type": "Feature",
      "geometry": {
        "type": "Polygon",
        "coordinates": [
          [
            [
              81.63505098714528,
              21.25105412971312
            ],
            [
              81.63686662547998,
              21.250976172542615
            ],
            [
              81.63687903902593,
              21.252457788060397
            ],
            [
              81.6350092488283,
              21.252252611371546
            ],
            [
              81.63505098714528,
              21.25105412971312
            ]
          ]
        ]
      },
      "properties": {
        "plot_id": "P010",
        "violation_types": [
          "BOUNDARY_DEVIATION"
        ],
        "primary_violation": "BOUNDARY_DEVIATION",
        "severity": "CRITICAL",
        "area_ref_sqm": 24404.7,
        "area_cur_sqm": 24702.6,
        "area_diff_pct": 1.22,
        "overlap_pct": 64.67,
        "iou": 0.4736,
        "encroachment_area_sqm": 8920.6,
        "detection_date": "2026-02-07",
        "action_required": "Resurvey boundaries; issue correction notice",
        "estimated_cost_inr": 500000,
        "encroachment_geojson": "{\"type\": \"Polygon\", \"coordinates\": [[[81.6350092488283, 21.252252611371546], [81.63687903902593, 21.252457788060397], [81.63686662547998, 21.250976172542615], [81.63660151101976, 21.25098755563185], [81.63661320634189, 21.252093811135712], [81.63501960558781, 21.25195522548688], [81.6350092488283, 21.252252611371546]]]}",
        "satellite_verdict": "COMPLIANT",
        "satellite_confidence": 0,
        "satellite_evidence": {
          "sar": {
            "method": "SAR",
            "available": false
          },
          "ndvi": {
            "method": "NDVI",
            "available": false
          },
          "ndbi": {
            "method": "NDBI",
            "available": false
          },
          "tile_diff": {
            "method": "TILE_DIFF",
            "available": true,
            "change_pct": 9.29,
            "ssim": 0.3375,
            "significant_change": false
          }
        }
      }
    }
  ]
}